<?xml version="1.0" encoding="UTF-8"?>
<kml xmlns="http://earth.google.com/kml/2.1">
<Document>
<Placemark>
<name>P1_route.kml</name>
<LineString>
<tessellate>1</tessellate>
<coordinates>
90.4048,23.8551,0
90.405,23.8549,0
90.4051,23.8548,0
90.4165,23.8409,0
90.4179,23.8387,0
90.4184,23.8372,0
90.4188,23.8356,0
90.4193,23.833,0
90.42,23.8288,0
90.4203,23.8268,0
90.4205,23.825,0
90.4203,23.8236,0
90.4199,23.8228,0
90.419,23.8217,0
90.4181,23.821,0
90.4174,23.8205,0
90.415,23.8189,0
90.4123,23.8172,0
90.4115,23.8169,0
90.4107,23.8169,0
90.4095,23.8169,0
90.4067,23.817,0
90.4056,23.8165,0
90.405,23.816,0
90.4045,23.8151,0
90.4041,23.8128,0
90.4021,23.8007,0
90.402,23.8002,0
90.4018,23.7991,0
90.4015,23.797,0
90.401,23.7945,0
90.4006,23.7944,0
90.4004,23.7936,0
90.4,23.7907,0
90.3999,23.7906,0
90.3999,23.7905,0
90.398,23.7782,0
90.3977,23.7782,0
90.3976,23.7782,0
90.3975,23.7782,0
90.3973,23.7781,0
90.3964,23.7777,0
90.3962,23.7776,0
90.3955,23.7771,0
90.3954,23.7771,0
90.3944,23.7765,0
90.3942,23.7765,0
90.3939,23.7764,0
90.3936,23.7761,0
90.3935,23.7761,0
90.3927,23.7758,0
90.3909,23.7754,0
90.3898,23.7752,0
90.3895,23.7798,0
90.3896,23.7835,0
90.3908,23.7877,0
90.3896,23.7878,0
90.3885,23.7879,0
90.3884,23.7883,0
90.3883,23.789,0
90.3882,23.7897,0
90.388,23.7909,0
90.3878,23.7916,0
90.388,23.7932,0
90.388,23.7938,0
90.3879,23.7943,0
90.3878,23.7948,0
90.3878,23.7952,0
90.3877,23.7959,0
90.3877,23.7959,0
90.3876,23.7964,0
90.3875,23.7966,0
90.3875,23.7969,0
90.3873,23.7978,0
90.3873,23.7985,0
90.3872,23.7985,0
90.3867,23.7987,0
90.3865,23.7988,0
90.3862,23.7988,0
90.3859,23.7989,0
90.3859,23.799,0
90.3858,23.799,0
90.3852,23.7992,0
90.385,23.7993,0
90.3847,23.7994,0
90.3838,23.7998,0
90.3837,23.7998,0
90.3834,23.7999,0
90.3833,23.8,0
90.3829,23.8001,0
90.3826,23.8003,0
90.3823,23.8004,0
90.382,23.8006,0
90.3815,23.8009,0
90.3815,23.8009,0
90.3807,23.8014,0
90.3804,23.8016,0
90.3802,23.8017,0
90.38,23.8019,0
90.3799,23.8021,0
90.3792,23.8027,0
90.3791,23.8027,0
90.3788,23.803,0
90.3785,23.8032,0
90.3781,23.8036,0
90.3779,23.8037,0
90.3776,23.804,0
90.3775,23.8041,0
90.3772,23.8042,0
90.377,23.8044,0
90.3765,23.8048,0
90.3761,23.8052,0
90.3753,23.8058,0
90.3747,23.8062,0
90.3742,23.8064,0
90.3734,23.8066,0
90.3723,23.8068,0
90.3721,23.8068,0
90.3719,23.8069,0
90.3714,23.807,0
90.3708,23.8071,0
90.3701,23.8072,0
90.3696,23.8073,0
90.3691,23.8072,0
90.369,23.8072,0
90.3686,23.8071,0
90.3683,23.807,0
90.3681,23.807,0
90.367,23.8068,0
90.3669,23.8068,0
90.3669,23.8068,0
90.3666,23.8067,0
90.3665,23.8067,0
90.3662,23.8066,0
90.3658,23.8064,0
90.3656,23.8063,0
90.3648,23.8059,0
90.3646,23.8057,0
90.364,23.8054,0
90.3635,23.8051,0
</coordinates>
</LineString>
</Placemark>
</Document>
</kml>
