<?xml version="1.0" encoding="UTF-8"?>
<kml xmlns="http://earth.google.com/kml/2.1">
<Document>
<Placemark>
<name>P6_route.kml</name>
<LineString>
<tessellate>1</tessellate>
<coordinates>
90.4048,23.8551,0
90.405,23.8549,0
90.4051,23.8548,0
90.4165,23.8409,0
90.4179,23.8387,0
90.4184,23.8372,0
90.4188,23.8356,0
90.4193,23.833,0
90.42,23.8288,0
90.4203,23.8268,0
90.4205,23.825,0
90.4203,23.8236,0
90.4199,23.8228,0
90.419,23.8217,0
90.4181,23.821,0
90.4174,23.8205,0
90.415,23.8189,0
90.4123,23.8172,0
90.4115,23.8169,0
90.4107,23.8169,0
90.4095,23.8169,0
90.4067,23.817,0
90.4056,23.8165,0
90.405,23.816,0
90.4045,23.8151,0
90.4041,23.8128,0
90.4021,23.8007,0
90.402,23.8002,0
90.4018,23.7991,0
90.4015,23.797,0
90.401,23.7945,0
90.401,23.7945,0
90.4005,23.7914,0
90.4004,23.7906,0
90.4002,23.7891,0
90.4,23.7881,0
90.3988,23.7811,0
90.3987,23.7805,0
90.3986,23.7801,0
90.3985,23.7797,0
90.3985,23.7797,0
90.3984,23.7788,0
90.3984,23.7783,0
90.3984,23.7782,0
90.398,23.7782,0
90.3977,23.7782,0
90.3976,23.7782,0
90.3975,23.7782,0
90.3973,23.7781,0
90.3964,23.7777,0
90.3962,23.7776,0
90.3955,23.7771,0
90.3954,23.7771,0
90.3944,23.7765,0
90.3942,23.7765,0
90.3939,23.7764,0
90.3936,23.7761,0
90.3935,23.7761,0
90.3927,23.7758,0
90.3909,23.7754,0
90.3898,23.7752,0
90.39,23.7737,0
90.3899,23.7724,0
90.3893,23.7682,0
90.3891,23.767,0
90.3891,23.7663,0
90.3891,23.7651,0
90.3891,23.7644,0
90.3856,23.7649,0
90.3844,23.7651,0
90.3834,23.7651,0
90.3832,23.7661,0
90.3832,23.7667,0
90.3831,23.7684,0
90.3829,23.7691,0
90.3827,23.7698,0
90.3826,23.7703,0
90.3825,23.7708,0
90.3825,23.771,0
90.3822,23.7718,0
90.3822,23.7719,0
90.3819,23.7727,0
90.3817,23.7733,0
90.3817,23.7734,0
90.3815,23.7742,0
90.3808,23.7764,0
90.3807,23.7768,0
90.3804,23.7776,0
90.3801,23.7787,0
90.3799,23.7794,0
90.3796,23.7804,0
90.3796,23.7805,0
90.3792,23.7816,0
90.3792,23.7818,0
90.3789,23.7828,0
90.3788,23.7829,0
90.3787,23.7833,0
90.3787,23.7834,0
90.3785,23.7838,0
90.3783,23.7845,0
90.3782,23.7848,0
90.3781,23.7849,0
90.3781,23.7851,0
90.378,23.7853,0
90.3778,23.7858,0
90.3776,23.7863,0
90.3775,23.7865,0
90.3774,23.7867,0
90.3772,23.7872,0
90.3771,23.7873,0
90.3768,23.7881,0
90.3768,23.7881,0
90.3766,23.7886,0
90.3765,23.7887,0
90.3764,23.7889,0
90.3763,23.7892,0
90.3761,23.7896,0
90.3761,23.7896,0
90.3759,23.79,0
90.3758,23.7904,0
90.3757,23.7905,0
90.3756,23.7909,0
90.3754,23.7914,0
90.3753,23.7916,0
90.3752,23.7916,0
90.375,23.7921,0
90.375,23.7923,0
90.3748,23.7926,0
90.3748,23.7926,0
90.3748,23.7927,0
90.3746,23.7932,0
90.3745,23.7935,0
90.3744,23.7935,0
90.3743,23.7939,0
90.3742,23.7941,0
90.374,23.7946,0
90.3739,23.7949,0
90.3738,23.795,0
90.3738,23.7952,0
90.3736,23.7954,0
90.3735,23.7957,0
90.3733,23.7963,0
90.3732,23.7965,0
90.3732,23.7965,0
90.3729,23.7971,0
90.3729,23.7973,0
90.3728,23.7974,0
90.3724,23.7984,0
90.3722,23.7989,0
90.3721,23.7992,0
90.372,23.7994,0
90.3717,23.8,0
90.3715,23.8004,0
90.3715,23.8005,0
90.3715,23.8006,0
90.3714,23.8007,0
90.3713,23.8009,0
90.3712,23.8012,0
90.3711,23.8015,0
90.3709,23.8019,0
90.3708,23.8021,0
90.3706,23.8026,0
90.3706,23.8027,0
90.3705,23.8029,0
90.3703,23.8032,0
90.3703,23.8033,0
90.3702,23.8035,0
90.3702,23.8037,0
90.3701,23.8037,0
90.3699,23.8041,0
90.3698,23.8043,0
90.3697,23.8045,0
90.3697,23.8046,0
90.3695,23.805,0
90.3693,23.8054,0
90.3692,23.8056,0
90.3691,23.8059,0
90.3691,23.806,0
90.3688,23.8064,0
90.3688,23.8067,0
90.3687,23.8068,0
90.3687,23.807,0
90.3686,23.8071,0
90.3683,23.807,0
90.3681,23.807,0
90.367,23.8068,0
90.3669,23.8068,0
90.3669,23.8068,0
90.3666,23.8067,0
90.3665,23.8067,0
90.3662,23.8066,0
90.3658,23.8064,0
90.3656,23.8063,0
90.3648,23.8059,0
90.3646,23.8057,0
90.364,23.8054,0
90.3635,23.8051,0
</coordinates>
</LineString>
</Placemark>
</Document>
</kml>
